{"type": "FeatureCollection", "features": [ {"type": "Feature", "properties": {"norad_id": 66512, "name": "STARLINK-35366", "group": "last-30-days", "lat": 19.641254014099125, "lon": -40.334752155191204, "alt_km": 388.74185776568356, "timestamp": "2025-12-06T09:34:15.699219+00:00", "meta": {"OBJECT_NAME": "STARLINK-35366", "OBJECT_ID": "2025-263AD", "EPOCH": "2025-12-05T22:00:03.000096", "MEAN_MOTION": 15.60899871, "ECCENTRICITY": 0.00016872, "INCLINATION": 42.9994, "RA_OF_ASC_NODE": 165.0453, "ARG_OF_PERICENTER": 268.8273, "MEAN_ANOMALY": 51.1463, "EPHEMERIS_TYPE": 0, "CLASSIFICATION_TYPE": "U", "NORAD_CAT_ID": 66512, "ELEMENT_SET_NO": 999, "REV_AT_EPOCH": 453, "BSTAR": -0.026124169, "MEAN_MOTION_DOT": -0.01976268, "MEAN_MOTION_DDOT": 0}, "tle": {"line1": "1 66512U 25263AD  25339.91670139 -.01976268  00000+0 -26124-1 0  9992", "line2": "2 66512  42.9994 165.0453 0001687 268.8273  51.1463 15.60899871  4537"}}, "geometry": {"type": "Point", "coordinates": [-40.334752155191204, 19.641254014099125]}}, {"type": "Feature", "properties": {"norad_id": 66513, "name": "STARLINK-35692", "group": "last-30-days", "lat": 23.197506859607785, "lon": -45.18164408700428, "alt_km": 388.28651756471936, "timestamp": "2025-12-06T09:34:15.699229+00:00", "meta": {"OBJECT_NAME": "STARLINK-35692", "OBJECT_ID": "2025-263AE", "EPOCH": "2025-12-05T22:00:03.000096", "MEAN_MOTION": 15.60903127, "ECCENTRICITY": 0.00016961, "INCLINATION": 42.9993, "RA_OF_ASC_NODE": 165.0593, "ARG_OF_PERICENTER": 268.1651, "MEAN_ANOMALY": 46.0568, "EPHEMERIS_TYPE": 0, "CLASSIFICATION_TYPE": "U", "NORAD_CAT_ID": 66513, "ELEMENT_SET_NO": 999, "REV_AT_EPOCH": 453, "BSTAR": -0.026186774, "MEAN_MOTION_DOT": -0.01980652, "MEAN_MOTION_DDOT": 0}, "tle": {"line1": "1 66513U 25263AE  25339.91670139 -.01980652  00000+0 -26187-1 0  9994", "line2": "2 66513  42.9993 165.0593 0001696 268.1651  46.0568 15.60903127  4534"}}, "geometry": {"type": "Point", "coordinates": [-45.18164408700428, 23.197506859607785]}}, {"type": "Feature", "properties": {"norad_id": 66514, "name": "SENTINEL-6B", "group": "last-30-days", "lat": -14.85048103733891, "lon": 168.87182012479437, "alt_km": 1319.3968483248864, "timestamp": "2025-12-06T09:34:15.699240+00:00", "meta": {"OBJECT_NAME": "SENTINEL-6B", "OBJECT_ID": "2025-264A", "EPOCH": "2025-12-05T07:31:22.416096", "MEAN_MOTION": 12.8587776, "ECCENTRICITY": 0.00115487, "INCLINATION": 66.0393, "RA_OF_ASC_NODE": 177.917, "ARG_OF_PERICENTER": 268.403, "MEAN_ANOMALY": 91.5665, "EPHEMERIS_TYPE": 0, "CLASSIFICATION_TYPE": "U", "NORAD_CAT_ID": 66514, "ELEMENT_SET_NO": 999, "REV_AT_EPOCH": 233, "BSTAR": 0.0002937849, "MEAN_MOTION_DOT": 1.1e-07, "MEAN_MOTION_DDOT": 0}, "tle": {"line1": "1 66514U 25264A   25339.31345389  .00000011  00000+0  29378-3 0  9992", "line2": "2 66514  66.0393 177.9170 0011548 268.4030  91.5665 12.85877760  2336"}}, "geometry": {"type": "Point", "coordinates": [168.87182012479437, -14.85048103733891]}}, {"type": "Feature", "properties": {"norad_id": 66516, "name": "STARLINK-35924", "group": "last-30-days", "lat": -36.582861996811715, "lon": -35.862940148005094, "alt_km": 372.70815650886834, "timestamp": "2025-12-06T09:34:15.699250+00:00", "meta": {"OBJECT_NAME": "STARLINK-35924", "OBJECT_ID": "2025-265A", "EPOCH": "2025-12-05T22:00:03.000096", "MEAN_MOTION": 15.67992112, "ECCENTRICITY": 0.00016405, "INCLINATION": 43.0003, "RA_OF_ASC_NODE": 94.232, "ARG_OF_PERICENTER": 284.0713, "MEAN_ANOMALY": 114.0434, "EPHEMERIS_TYPE": 0, "CLASSIFICATION_TYPE": "U", "NORAD_CAT_ID": 66516, "ELEMENT_SET_NO": 999, "REV_AT_EPOCH": 387, "BSTAR": -0.019359417, "MEAN_MOTION_DOT": -0.01950871, "MEAN_MOTION_DDOT": 0}, "tle": {"line1": "1 66516U 25265A   25339.91670139 -.01950871  00000+0 -19359-1 0  9992", "line2": "2 66516  43.0003  94.2320 0001640 284.0713 114.0434 15.67992112  3870"}}, "geometry": {"type": "Point", "coordinates": [-35.862940148005094, -36.582861996811715]}}, {"type": "Feature", "properties": {"norad_id": 66517, "name": "STARLINK-35937", "group": "last-30-days", "lat": -37.351600860604805, "lon": -33.6735596112805, "alt_km": 372.7420836172505, "timestamp": "2025-12-06T09:34:15.699260+00:00", "meta": {"OBJECT_NAME": "STARLINK-35937", "OBJECT_ID": "2025-265B", "EPOCH": "2025-12-05T22:00:03.000096", "MEAN_MOTION": 15.67991698, "ECCENTRICITY": 0.00016578, "INCLINATION": 43.0001, "RA_OF_ASC_NODE": 94.2277, "ARG_OF_PERICENTER": 286.4163, "MEAN_ANOMALY": 113.6123, "EPHEMERIS_TYPE": 0, "CLASSIFICATION_TYPE": "U", "NORAD_CAT_ID": 66517, "ELEMENT_SET_NO": 999, "REV_AT_EPOCH": 389, "BSTAR": -0.019318996, "MEAN_MOTION_DOT": -0.01947258, "MEAN_MOTION_DDOT": 0}, "tle": {"line1": "1 66517U 25265B   25339.91670139 -.01947258  00000+0 -19319-1 0  9994", "line2": "2 66517  43.0001  94.2277 0001657 286.4163 113.6123 15.67991698  3893"}}, "geometry": {"type": "Point", "coordinates": [-33.6735596112805, -37.351600860604805]}}, {"type": "Feature", "properties": {"norad_id": 66518, "name": "STARLINK-35962", "group": "last-30-days", "lat": -38.07958434823401, "lon": -31.439477757856867, "alt_km": 372.6952817919846, "timestamp": "2025-12-06T09:34:15.699271+00:00", "meta": {"OBJECT_NAME": "STARLINK-35962", "OBJECT_ID": "2025-265C", "EPOCH": "2025-12-05T22:00:03.000096", "MEAN_MOTION": 15.67993967, "ECCENTRICITY": 0.00017015, "INCLINATION": 43.0001, "RA_OF_ASC_NODE": 94.2227, "ARG_OF_PERICENTER": 285.0369, "MEAN_ANOMALY": 116.9083, "EPHEMERIS_TYPE": 0, "CLASSIFICATION_TYPE": "U", "NORAD_CAT_ID": 66518, "ELEMENT_SET_NO": 999, "REV_AT_EPOCH": 389, "BSTAR": -0.019355799, "MEAN_MOTION_DOT": -0.01950729, "MEAN_MOTION_DDOT": 0}, "tle": {"line1": "1 66518U 25265C   25339.91670139 -.01950729  00000+0 -19356-1 0  9993", "line2": "2 66518  43.0001  94.2227 0001701 285.0369 116.9083 15.67993967  3894"}}, "geometry": {"type": "Point", "coordinates": [-31.439477757856867, -38.07958434823401]}}, {"type": "Feature", "properties": {"norad_id": 66519, "name": "STARLINK-35931", "group": "last-30-days", "lat": -38.76389312342884, "lon": -29.163409049531975, "alt_km": 372.7070885276544, "timestamp": "2025-12-06T09:34:15.699283+00:00", "meta": {"OBJECT_NAME": "STARLINK-35931", "OBJECT_ID": "2025-265D", "EPOCH": "2025-12-05T22:00:03.000096", "MEAN_MOTION": 15.67992073, "ECCENTRICITY": 0.00017435, "INCLINATION": 43.0002, "RA_OF_ASC_NODE": 94.2176, "ARG_OF_PERICENTER": 286.909, "MEAN_ANOMALY": 116.9537, "EPHEMERIS_TYPE": 0, "CLASSIFICATION_TYPE": "U", "NORAD_CAT_ID": 66519, "ELEMENT_SET_NO": 999, "REV_AT_EPOCH": 389, "BSTAR": -0.019328026, "MEAN_MOTION_DOT": -0.01948155, "MEAN_MOTION_DDOT": 0}, "tle": {"line1": "1 66519U 25265D   25339.91670139 -.01948155  00000+0 -19328-1 0  9993", "line2": "2 66519  43.0002  94.2176 0001743 286.9090 116.9537 15.67992073  3897"}}, "geometry": {"type": "Point", "coordinates": [-29.163409049531975, -38.76389312342884]}}, {"type": "Feature", "properties": {"norad_id": 66520, "name": "STARLINK-35952", "group": "last-30-days", "lat": -39.403021162203984, "lon": -26.843823890888675, "alt_km": 372.73870550340143, "timestamp": "2025-12-06T09:34:15.699293+00:00", "meta": {"OBJECT_NAME": "STARLINK-35952", "OBJECT_ID": "2025-265E", "EPOCH": "2025-12-05T22:00:03.000096", "MEAN_MOTION": 15.67990835, "ECCENTRICITY": 0.00017174, "INCLINATION": 43.0001, "RA_OF_ASC_NODE": 94.2126, "ARG_OF_PERICENTER": 287.913, "MEAN_ANOMALY": 117.8684, "EPHEMERIS_TYPE": 0, "CLASSIFICATION_TYPE": "U", "NORAD_CAT_ID": 66520, "ELEMENT_SET_NO": 999, "REV_AT_EPOCH": 389, "BSTAR": -0.019328616, "MEAN_MOTION_DOT": -0.01948099, "MEAN_MOTION_DDOT": 0}, "tle": {"line1": "1 66520U 25265E   25339.91670139 -.01948099  00000+0 -19329-1 0  9993", "line2": "2 66520  43.0001  94.2126 0001717 287.9130 117.8684 15.67990835  3897"}}, "geometry": {"type": "Point", "coordinates": [-26.843823890888675, -39.403021162203984]}}, {"type": "Feature", "properties": {"norad_id": 66521, "name": "STARLINK-35915", "group": "last-30-days", "lat": -39.99559522850376, "lon": -24.480897880615217, "alt_km": 372.7733868447094, "timestamp": "2025-12-06T09:34:15.699305+00:00", "meta": {"OBJECT_NAME": "STARLINK-35915", "OBJECT_ID": "2025-265F", "EPOCH": "2025-12-05T22:00:03.000096", "MEAN_MOTION": 15.67993961, "ECCENTRICITY": 0.00016346, "INCLINATION": 43.0001, "RA_OF_ASC_NODE": 94.2077, "ARG_OF_PERICENTER": 287.7525, "MEAN_ANOMALY": 119.9442, "EPHEMERIS_TYPE": 0, "CLASSIFICATION_TYPE": "U", "NORAD_CAT_ID": 66521, "ELEMENT_SET_NO": 999, "REV_AT_EPOCH": 389, "BSTAR": -0.019365226, "MEAN_MOTION_DOT": -0.01951515, "MEAN_MOTION_DDOT": 0}, "tle": {"line1": "1 66521U 25265F   25339.91670139 -.01951515  00000+0 -19365-1 0  9991", "line2": "2 66521  43.0001  94.2077 0001634 287.7525 119.9442 15.67993961  3895"}}, "geometry": {"type": "Point", "coordinates": [-24.480897880615217, -39.99559522850376]}}, {"type": "Feature", "properties": {"norad_id": 66522, "name": "STARLINK-35946", "group": "last-30-days", "lat": -40.53873885179485, "lon": -22.080166986392577, "alt_km": 372.72909487115703, "timestamp": "2025-12-06T09:34:15.699317+00:00", "meta": {"OBJECT_NAME": "STARLINK-35946", "OBJECT_ID": "2025-265G", "EPOCH": "2025-12-05T22:00:03.000096", "MEAN_MOTION": 15.67992112, "ECCENTRICITY": 0.00017045, "INCLINATION": 43.0001, "RA_OF_ASC_NODE": 94.2029, "ARG_OF_PERICENTER": 288.192, "MEAN_ANOMALY": 121.4213, "EPHEMERIS_TYPE": 0, "CLASSIFICATION_TYPE": "U", "NORAD_CAT_ID": 66522, "ELEMENT_SET_NO": 999, "REV_AT_EPOCH": 389, "BSTAR": -0.01932463, "MEAN_MOTION_DOT": -0.01947825, "MEAN_MOTION_DDOT": 0}, "tle": {"line1": "1 66522U 25265G   25339.91670139 -.01947825  00000+0 -19325-1 0  9997", "line2": "2 66522  43.0001  94.2029 0001704 288.1920 121.4213 15.67992112  3896"}}, "geometry": {"type": "Point", "coordinates": [-22.080166986392577, -40.53873885179485]}}]}